IRIDIUM 57 [-]          
1 25273U 98019B   24055.49888076  .00000599  00000+0  20327-3 0  9991
2 25273  86.4017 345.7365 0002147  86.5639 273.5803 14.35098052356112
IRIDIUM 63 [-]          
1 25286U 98021B   24055.91339232  .00000518  00000+0  17299-3 0  9995
2 25286  86.3948 282.4815 0002141  82.2057 277.9383 14.35616751355208
IRIDIUM 69 [-]          
1 25319U 98026A   24055.40955326  .00000458  00000+0  13990-3 0  9996
2 25319  86.3970 297.4263 0003456 125.4690 234.6832 14.39809681354147
IRIDIUM 71 [-]          
1 25320U 98026B   24055.57386221  .00000618  00000+0  18955-3 0  9992
2 25320  86.3954 292.1422 0001458 156.7419 203.3846 14.40134491354685
IRIDIUM 73 [-]          
1 25344U 98032C   24055.81488556  .00000919  00000+0  23065-3 0  9998
2 25344  86.4378 249.6130 0002341 104.1051 256.0414 14.50311427361193
IRIDIUM 82 [-]          
1 25467U 98051A   24055.77515797  .00014289  00000+0  77496-3 0  9990
2 25467  86.3929 339.3939 0134419 276.7213  81.8741 15.06915780351394
IRIDIUM 2 [-]           
1 25527U 98066A   24055.59802722  .00087090  00000+0  12226-2 0  9999
2 25527  85.5152  16.1293 0007923  79.1583 281.0570 15.56385792390102
